[{"OBJECT_NAME":"STARLINK-5671","OBJECT_ID":"2023-013J","EPOCH":"2026-03-08T00:05:56.981472","MEAN_MOTION":15.02536737,"ECCENTRICITY":0.0001158,"INCLINATION":43.0043,"RA_OF_ASC_NODE":309.684,"ARG_OF_PERICENTER":266.2254,"MEAN_ANOMALY":93.8456,"EPHEMERIS_TYPE":0,"CLASSIFICATION_TYPE":"U","NORAD_CAT_ID":55339,"ELEMENT_SET_NO":999,"REV_AT_EPOCH":17145,"BSTAR":3.9786178e-5,"MEAN_MOTION_DOT":3.34e-6,"MEAN_MOTION_DDOT":0},{"OBJECT_NAME":"CZ-6A DEB","OBJECT_ID":"2024-140AEQ","EPOCH":"2026-03-08T12:33:24.076512","MEAN_MOTION":14.8870666,"ECCENTRICITY":0.00636681,"INCLINATION":88.9441,"RA_OF_ASC_NODE":276.789,"ARG_OF_PERICENTER":190.9278,"MEAN_ANOMALY":169.0572,"EPHEMERIS_TYPE":0,"CLASSIFICATION_TYPE":"U","NORAD_CAT_ID":64650,"ELEMENT_SET_NO":999,"REV_AT_EPOCH":7602,"BSTAR":0.0049237892,"MEAN_MOTION_DOT":0.00048011,"MEAN_MOTION_DDOT":0}]
